{"type": "FeatureCollection", "features": [ {"type": "Feature", "properties": {"norad_id": 33779, "name": "COSMOS 2251 DEB", "group": "cosmos-2251-debris", "lat": -33.24198397040888, "lon": -14.380662179941357, "alt_km": 654.5862795381199, "timestamp": "2025-12-20T22:39:11.017586+00:00", "meta": {"OBJECT_NAME": "COSMOS 2251 DEB", "OBJECT_ID": "1993-036U", "EPOCH": "2025-12-20T12:08:28.406112", "MEAN_MOTION": 14.70626115, "ECCENTRICITY": 0.00163706, "INCLINATION": 74.0443, "RA_OF_ASC_NODE": 155.6606, "ARG_OF_PERICENTER": 188.6804, "MEAN_ANOMALY": 228.0047, "EPHEMERIS_TYPE": 0, "CLASSIFICATION_TYPE": "U", "NORAD_CAT_ID": 33779, "ELEMENT_SET_NO": 999, "REV_AT_EPOCH": 88642, "BSTAR": 0.0015018369, "MEAN_MOTION_DOT": 9.136e-05, "MEAN_MOTION_DDOT": 0}, "tle": {"line1": "1 33779U 93036U   25354.50588433  .00009136  00000+0  15018-2 0  9990", "line2": "2 33779  74.0443 155.6606 0016370 188.6804 228.0047 14.70626115886428"}}, "geometry": {"type": "Point", "coordinates": [-14.380662179941357, -33.24198397040888]}}, {"type": "Feature", "properties": {"norad_id": 33782, "name": "COSMOS 2251 DEB", "group": "cosmos-2251-debris", "lat": 12.015013335960582, "lon": 78.88078734548023, "alt_km": 771.8463175748157, "timestamp": "2025-12-20T22:39:11.017596+00:00", "meta": {"OBJECT_NAME": "COSMOS 2251 DEB", "OBJECT_ID": "1993-036X", "EPOCH": "2025-12-20T05:58:18.713280", "MEAN_MOTION": 14.40465426, "ECCENTRICITY": 0.0021018, "INCLINATION": 74.0331, "RA_OF_ASC_NODE": 263.6592, "ARG_OF_PERICENTER": 327.4695, "MEAN_ANOMALY": 197.1536, "EPHEMERIS_TYPE": 0, "CLASSIFICATION_TYPE": "U", "NORAD_CAT_ID": 33782, "ELEMENT_SET_NO": 999, "REV_AT_EPOCH": 88234, "BSTAR": 0.0002698, "MEAN_MOTION_DOT": 8.33e-06, "MEAN_MOTION_DDOT": 0}, "tle": {"line1": "1 33782U 93036X   25354.24882770  .00000833  00000+0  26980-3 0  9992", "line2": "2 33782  74.0331 263.6592 0021018 327.4695 197.1536 14.40465426882347"}}, "geometry": {"type": "Point", "coordinates": [78.88078734548023, 12.015013335960582]}}, {"type": "Feature", "properties": {"norad_id": 33785, "name": "COSMOS 2251 DEB", "group": "cosmos-2251-debris", "lat": -8.524517131215008, "lon": -133.67078244990253, "alt_km": 677.0895499555236, "timestamp": "2025-12-20T22:39:11.017606+00:00", "meta": {"OBJECT_NAME": "COSMOS 2251 DEB", "OBJECT_ID": "1993-036AA", "EPOCH": "2025-12-20T14:10:16.342752", "MEAN_MOTION": 14.70644689, "ECCENTRICITY": 0.00230146, "INCLINATION": 73.867, "RA_OF_ASC_NODE": 44.5353, "ARG_OF_PERICENTER": 342.4192, "MEAN_ANOMALY": 136.1559, "EPHEMERIS_TYPE": 0, "CLASSIFICATION_TYPE": "U", "NORAD_CAT_ID": 33785, "ELEMENT_SET_NO": 999, "REV_AT_EPOCH": 88622, "BSTAR": 0.0011292902, "MEAN_MOTION_DOT": 6.874e-05, "MEAN_MOTION_DDOT": 0}, "tle": {"line1": "1 33785U 93036AA  25354.59046693  .00006874  00000+0  11293-2 0  9990", "line2": "2 33785  73.8670  44.5353 0023014 342.4192 136.1559 14.70644689886223"}}, "geometry": {"type": "Point", "coordinates": [-133.67078244990253, -8.524517131215008]}}, {"type": "Feature", "properties": {"norad_id": 33789, "name": "COSMOS 2251 DEB", "group": "cosmos-2251-debris", "lat": 63.89524939758474, "lon": -142.18395712149163, "alt_km": 880.9946574771539, "timestamp": "2025-12-20T22:39:11.017615+00:00", "meta": {"OBJECT_NAME": "COSMOS 2251 DEB", "OBJECT_ID": "1993-036AE", "EPOCH": "2025-12-20T06:49:46.750368", "MEAN_MOTION": 13.88811641, "ECCENTRICITY": 0.02398477, "INCLINATION": 74.0645, "RA_OF_ASC_NODE": 74.6015, "ARG_OF_PERICENTER": 188.5719, "MEAN_ANOMALY": 229.9075, "EPHEMERIS_TYPE": 0, "CLASSIFICATION_TYPE": "U", "NORAD_CAT_ID": 33789, "ELEMENT_SET_NO": 999, "REV_AT_EPOCH": 85200, "BSTAR": 0.00050857821, "MEAN_MOTION_DOT": 7.5e-06, "MEAN_MOTION_DDOT": 0}, "tle": {"line1": "1 33789U 93036AE  25354.28456887  .00000750  00000+0  50858-3 0  9998", "line2": "2 33789  74.0645  74.6015 0239847 188.5719 229.9075 13.88811641852003"}}, "geometry": {"type": "Point", "coordinates": [-142.18395712149163, 63.89524939758474]}}, {"type": "Feature", "properties": {"norad_id": 33791, "name": "COSMOS 2251 DEB", "group": "cosmos-2251-debris", "lat": 28.364151855011567, "lon": -166.33514966122843, "alt_km": 738.245921852711, "timestamp": "2025-12-20T22:39:11.017624+00:00", "meta": {"OBJECT_NAME": "COSMOS 2251 DEB", "OBJECT_ID": "1993-036AG", "EPOCH": "2025-12-20T10:56:03.915168", "MEAN_MOTION": 14.43160953, "ECCENTRICITY": 0.00302581, "INCLINATION": 74.1746, "RA_OF_ASC_NODE": 23.3721, "ARG_OF_PERICENTER": 219.1638, "MEAN_ANOMALY": 275.7231, "EPHEMERIS_TYPE": 0, "CLASSIFICATION_TYPE": "U", "NORAD_CAT_ID": 33791, "ELEMENT_SET_NO": 999, "REV_AT_EPOCH": 88163, "BSTAR": 0.00056842955, "MEAN_MOTION_DOT": 1.895e-05, "MEAN_MOTION_DDOT": 0}, "tle": {"line1": "1 33791U 93036AG  25354.45560087  .00001895  00000+0  56843-3 0  9999", "line2": "2 33791  74.1746  23.3721 0030258 219.1638 275.7231 14.43160953881639"}}, "geometry": {"type": "Point", "coordinates": [-166.33514966122843, 28.364151855011567]}}, {"type": "Feature", "properties": {"norad_id": 33792, "name": "COSMOS 2251 DEB", "group": "cosmos-2251-debris", "lat": -27.47831032678775, "lon": 160.88098134884012, "alt_km": 1409.7329540368228, "timestamp": "2025-12-20T22:39:11.017634+00:00", "meta": {"OBJECT_NAME": "COSMOS 2251 DEB", "OBJECT_ID": "1993-036AH", "EPOCH": "2025-12-20T09:40:11.752320", "MEAN_MOTION": 13.45835909, "ECCENTRICITY": 0.0427519, "INCLINATION": 73.9011, "RA_OF_ASC_NODE": 333.1064, "ARG_OF_PERICENTER": 36.3499, "MEAN_ANOMALY": 71.6407, "EPHEMERIS_TYPE": 0, "CLASSIFICATION_TYPE": "U", "NORAD_CAT_ID": 33792, "ELEMENT_SET_NO": 999, "REV_AT_EPOCH": 82545, "BSTAR": 0.00081896242, "MEAN_MOTION_DOT": 8.29e-06, "MEAN_MOTION_DDOT": 0}, "tle": {"line1": "1 33792U 93036AH  25354.40291380  .00000829  00000+0  81896-3 0  9994", "line2": "2 33792  73.9011 333.1064 0427519  36.3499  71.6407 13.45835909825455"}}, "geometry": {"type": "Point", "coordinates": [160.88098134884012, -27.47831032678775]}}, {"type": "Feature", "properties": {"norad_id": 33793, "name": "COSMOS 2251 DEB", "group": "cosmos-2251-debris", "lat": -56.073843627440986, "lon": 109.72188604588828, "alt_km": 751.8436748450486, "timestamp": "2025-12-20T22:39:11.017643+00:00", "meta": {"OBJECT_NAME": "COSMOS 2251 DEB", "OBJECT_ID": "1993-036AJ", "EPOCH": "2025-12-19T20:36:01.325952", "MEAN_MOTION": 14.27744552, "ECCENTRICITY": 0.00787538, "INCLINATION": 73.9804, "RA_OF_ASC_NODE": 136.9795, "ARG_OF_PERICENTER": 285.6798, "MEAN_ANOMALY": 197.1544, "EPHEMERIS_TYPE": 0, "CLASSIFICATION_TYPE": "U", "NORAD_CAT_ID": 33793, "ELEMENT_SET_NO": 999, "REV_AT_EPOCH": 87308, "BSTAR": 0.00050526759, "MEAN_MOTION_DOT": 1.263e-05, "MEAN_MOTION_DDOT": 0}, "tle": {"line1": "1 33793U 93036AJ  25353.85834868  .00001263  00000+0  50527-3 0  9997", "line2": "2 33793  73.9804 136.9795 0078753 285.6798 197.1544 14.27744552873081"}}, "geometry": {"type": "Point", "coordinates": [109.72188604588828, -56.073843627440986]}}, {"type": "Feature", "properties": {"norad_id": 33795, "name": "COSMOS 2251 DEB", "group": "cosmos-2251-debris", "lat": 24.03158514136174, "lon": 67.24758218542051, "alt_km": 557.2856680504001, "timestamp": "2025-12-20T22:39:11.017653+00:00", "meta": {"OBJECT_NAME": "COSMOS 2251 DEB", "OBJECT_ID": "1993-036AL", "EPOCH": "2025-12-20T13:28:45.520608", "MEAN_MOTION": 15.05758745, "ECCENTRICITY": 0.0030539, "INCLINATION": 74.0325, "RA_OF_ASC_NODE": 60.6962, "ARG_OF_PERICENTER": 141.421, "MEAN_ANOMALY": 332.9247, "EPHEMERIS_TYPE": 0, "CLASSIFICATION_TYPE": "U", "NORAD_CAT_ID": 33795, "ELEMENT_SET_NO": 999, "REV_AT_EPOCH": 90139, "BSTAR": 0.00075203481, "MEAN_MOTION_DOT": 0.00010982, "MEAN_MOTION_DDOT": 0}, "tle": {"line1": "1 33795U 93036AL  25354.56163797  .00010982  00000+0  75203-3 0  9990", "line2": "2 33795  74.0325  60.6962 0030539 141.4210 332.9247 15.05758745901391"}}, "geometry": {"type": "Point", "coordinates": [67.24758218542051, 24.03158514136174]}}, {"type": "Feature", "properties": {"norad_id": 33797, "name": "COSMOS 2251 DEB", "group": "cosmos-2251-debris", "lat": -52.30865503910568, "lon": -138.9031314048101, "alt_km": 734.3232224604672, "timestamp": "2025-12-20T22:39:11.017664+00:00", "meta": {"OBJECT_NAME": "COSMOS 2251 DEB", "OBJECT_ID": "1993-036AN", "EPOCH": "2025-12-20T12:25:47.436960", "MEAN_MOTION": 14.57872642, "ECCENTRICITY": 0.00604185, "INCLINATION": 74.0465, "RA_OF_ASC_NODE": 20.1764, "ARG_OF_PERICENTER": 105.6829, "MEAN_ANOMALY": 54.405, "EPHEMERIS_TYPE": 0, "CLASSIFICATION_TYPE": "U", "NORAD_CAT_ID": 33797, "ELEMENT_SET_NO": 999, "REV_AT_EPOCH": 89098, "BSTAR": 0.00025744704, "MEAN_MOTION_DOT": 1.179e-05, "MEAN_MOTION_DDOT": 0}, "tle": {"line1": "1 33797U 93036AN  25354.51791015  .00001179  00000+0  25745-3 0  9991", "line2": "2 33797  74.0465  20.1764 0060418 105.6829  54.4050 14.57872642890985"}}, "geometry": {"type": "Point", "coordinates": [-138.9031314048101, -52.30865503910568]}}, {"type": "Feature", "properties": {"norad_id": 33798, "name": "COSMOS 2251 DEB", "group": "cosmos-2251-debris", "lat": 72.56617366010511, "lon": -173.59797937196657, "alt_km": 796.5298243892776, "timestamp": "2025-12-20T22:39:11.017678+00:00", "meta": {"OBJECT_NAME": "COSMOS 2251 DEB", "OBJECT_ID": "1993-036AP", "EPOCH": "2025-12-20T10:55:22.622880", "MEAN_MOTION": 14.44623468, "ECCENTRICITY": 0.00923944, "INCLINATION": 74.0291, "RA_OF_ASC_NODE": 121.5344, "ARG_OF_PERICENTER": 241.2279, "MEAN_ANOMALY": 181.3272, "EPHEMERIS_TYPE": 0, "CLASSIFICATION_TYPE": "U", "NORAD_CAT_ID": 33798, "ELEMENT_SET_NO": 999, "REV_AT_EPOCH": 88705, "BSTAR": 0.00013177049, "MEAN_MOTION_DOT": 4.51e-06, "MEAN_MOTION_DDOT": 0}, "tle": {"line1": "1 33798U 93036AP  25354.45512295  .00000451  00000+0  13177-3 0  9994", "line2": "2 33798  74.0291 121.5344 0092394 241.2279 181.3272 14.44623468887053"}}, "geometry": {"type": "Point", "coordinates": [-173.59797937196657, 72.56617366010511]}}]}